[{"OBJECT_NAME":"GJZ 01","OBJECT_ID":"2024-238A","EPOCH":"2026-03-09T22:58:31.569312","MEAN_MOTION":13.75204151,"ECCENTRICITY":0.00225262,"INCLINATION":59.9119,"RA_OF_ASC_NODE":227.0135,"ARG_OF_PERICENTER":155.3106,"MEAN_ANOMALY":204.8985,"EPHEMERIS_TYPE":0,"CLASSIFICATION_TYPE":"U","NORAD_CAT_ID":62290,"ELEMENT_SET_NO":999,"REV_AT_EPOCH":6195,"BSTAR":0.00017039412,"MEAN_MOTION_DOT":4.5e-7,"MEAN_MOTION_DDOT":0},{"OBJECT_NAME":"SL-8 R\/B","OBJECT_ID":"1971-111B","EPOCH":"2026-03-09T23:43:38.292096","MEAN_MOTION":13.77129665,"ECCENTRICITY":0.00220267,"INCLINATION":74.031,"RA_OF_ASC_NODE":351.7751,"ARG_OF_PERICENTER":88.3154,"MEAN_ANOMALY":349.6301,"EPHEMERIS_TYPE":0,"CLASSIFICATION_TYPE":"U","NORAD_CAT_ID":5685,"ELEMENT_SET_NO":999,"REV_AT_EPOCH":72405,"BSTAR":9.649306e-5,"MEAN_MOTION_DOT":7.3e-7,"MEAN_MOTION_DDOT":0}]
